{
  "type": "FeatureCollection",
  "features": [
    {
      "type": "Feature",
      "properties": {
        "norad_id": 40069,
        "name": "METEOR-M 2",
        "group": "weather",
        "lat": 2.4336165608850435,
        "lon": -32.03647014164885,
        "alt_km": 826.8420402104584,
        "timestamp": "2025-12-16T21:38:56.811737+00:00",
        "meta_object_name": "METEOR-M 2",
        "meta_object_id": "2014-037A",
        "meta_epoch": "2025-12-16T04:44:35.041920",
        "meta_mean_motion": 14.21389002,
        "meta_eccentricity": 0.00051358,
        "meta_inclination": 98.49,
        "meta_ra_of_asc_node": 327.6499,
        "meta_arg_of_pericenter": 198.8027,
        "meta_mean_anomaly": 161.2962,
        "meta_ephemeris_type": 0,
        "meta_classification_type": "U",
        "meta_norad_cat_id": 40069,
        "meta_element_set_no": 999,
        "meta_rev_at_epoch": 59332,
        "meta_bstar": 0.00017165419,
        "meta_mean_motion_dot": 3.33e-06,
        "meta_mean_motion_ddot": 0,
        "tle_line1": "1 40069U 14037A   25350.19762780  .00000333  00000+0  17165-3 0  9990",
        "tle_line2": "2 40069  98.4900 327.6499 0005135 198.8027 161.2962 14.21389002593329"
      },
      "geometry": {
        "type": "Point",
        "coordinates": [
          -32.03647014164885,
          2.4336165608850435
        ]
      }
    },
    {
      "type": "Feature",
      "properties": {
        "norad_id": 40267,
        "name": "HIMAWARI-8",
        "group": "weather",
        "lat": 0.00351558420147953,
        "lon": -168.8310129555715,
        "alt_km": 35786.306938955444,
        "timestamp": "2025-12-16T21:38:56.811749+00:00",
        "meta_object_name": "HIMAWARI-8",
        "meta_object_id": "2014-060A",
        "meta_epoch": "2025-12-16T07:10:43.358880",
        "meta_mean_motion": 1.00272695,
        "meta_eccentricity": 8.929e-05,
        "meta_inclination": 0.0182,
        "meta_ra_of_asc_node": 160.1434,
        "meta_arg_of_pericenter": 127.5645,
        "meta_mean_anomaly": 45.8311,
        "meta_ephemeris_type": 0,
        "meta_classification_type": "U",
        "meta_norad_cat_id": 40267,
        "meta_element_set_no": 999,
        "meta_rev_at_epoch": 4092,
        "meta_bstar": 0,
        "meta_mean_motion_dot": -2.52e-06,
        "meta_mean_motion_ddot": 0,
        "tle_line1": "1 40267U 14060A   25350.29911295 -.00000252  00000+0  00000+0 0  9991",
        "tle_line2": "2 40267   0.0182 160.1434 0000892 127.5645  45.8311  1.00272695 40929"
      },
      "geometry": {
        "type": "Point",
        "coordinates": [
          -168.8310129555715,
          0.00351558420147953
        ]
      }
    },
    {
      "type": "Feature",
      "properties": {
        "norad_id": 40367,
        "name": "FENGYUN 2G",
        "group": "weather",
        "lat": 5.00706670672771,
        "lon": 149.83647631264367,
        "alt_km": 35795.51729331658,
        "timestamp": "2025-12-16T21:38:56.811761+00:00",
        "meta_object_name": "FENGYUN 2G",
        "meta_object_id": "2014-090A",
        "meta_epoch": "2025-12-15T18:59:44.414592",
        "meta_mean_motion": 1.00263196,
        "meta_eccentricity": 0.00029567,
        "meta_inclination": 5.1761,
        "meta_ra_of_asc_node": 75.0635,
        "meta_arg_of_pericenter": 202.0383,
        "meta_mean_anomaly": 191.9641,
        "meta_ephemeris_type": 0,
        "meta_classification_type": "U",
        "meta_norad_cat_id": 40367,
        "meta_element_set_no": 999,
        "meta_rev_at_epoch": 4016,
        "meta_bstar": 0,
        "meta_mean_motion_dot": -2.81e-06,
        "meta_mean_motion_ddot": 0,
        "tle_line1": "1 40367U 14090A   25349.79148628 -.00000281  00000+0  00000+0 0  9992",
        "tle_line2": "2 40367   5.1761  75.0635 0002956 202.0383 191.9641  1.00263196 40168"
      },
      "geometry": {
        "type": "Point",
        "coordinates": [
          149.83647631264367,
          5.00706670672771
        ]
      }
    },
    {
      "type": "Feature",
      "properties": {
        "norad_id": 40732,
        "name": "METEOSAT-11 (MSG-4)",
        "group": "weather",
        "lat": -0.5581024248961883,
        "lon": 59.755264471391634,
        "alt_km": 35790.103623774296,
        "timestamp": "2025-12-16T21:38:56.811790+00:00",
        "meta_object_name": "METEOSAT-11 (MSG-4)",
        "meta_object_id": "2015-034A",
        "meta_epoch": "2025-12-16T06:33:09.456768",
        "meta_mean_motion": 1.00268594,
        "meta_eccentricity": 9.117e-05,
        "meta_inclination": 2.7446,
        "meta_ra_of_asc_node": 71.992,
        "meta_arg_of_pericenter": 131.4875,
        "meta_mean_anomaly": 349.2173,
        "meta_ephemeris_type": 0,
        "meta_classification_type": "U",
        "meta_norad_cat_id": 40732,
        "meta_element_set_no": 999,
        "meta_rev_at_epoch": 538,
        "meta_bstar": 0,
        "meta_mean_motion_dot": 8.2e-07,
        "meta_mean_motion_ddot": 0,
        "tle_line1": "1 40732U 15034A   25350.27302612  .00000082  00000+0  00000+0 0  9995",
        "tle_line2": "2 40732   2.7446  71.9920 0000911 131.4875 349.2173  1.00268594  5389"
      },
      "geometry": {
        "type": "Point",
        "coordinates": [
          59.755264471391634,
          -0.5581024248961883
        ]
      }
    },
    {
      "type": "Feature",
      "properties": {
        "norad_id": 41105,
        "name": "ELEKTRO-L 2",
        "group": "weather",
        "lat": -3.706472838281146,
        "lon": 36.229719582136426,
        "alt_km": 35792.83776933822,
        "timestamp": "2025-12-16T21:38:56.811802+00:00",
        "meta_object_name": "ELEKTRO-L 2",
        "meta_object_id": "2015-074A",
        "meta_epoch": "2025-12-16T01:18:12.753792",
        "meta_mean_motion": 1.00272542,
        "meta_eccentricity": 0.00037924,
        "meta_inclination": 6.234,
        "meta_ra_of_asc_node": 72.7892,
        "meta_arg_of_pericenter": 209.7128,
        "meta_mean_anomaly": 167.5089,
        "meta_ephemeris_type": 0,
        "meta_classification_type": "U",
        "meta_norad_cat_id": 41105,
        "meta_element_set_no": 999,
        "meta_rev_at_epoch": 3667,
        "meta_bstar": 0,
        "meta_mean_motion_dot": -9.9e-07,
        "meta_mean_motion_ddot": 0,
        "tle_line1": "1 41105U 15074A   25350.05431428 -.00000099  00000+0  00000+0 0  9997",
        "tle_line2": "2 41105   6.2340  72.7892 0003792 209.7128 167.5089  1.00272542 36674"
      },
      "geometry": {
        "type": "Point",
        "coordinates": [
          36.229719582136426,
          -3.706472838281146
        ]
      }
    },
    {
      "type": "Feature",
      "properties": {
        "norad_id": 41752,
        "name": "INSAT-3DR",
        "group": "weather",
        "lat": 0.07594500957408234,
        "lon": 124.41172474861845,
        "alt_km": 35836.37256419965,
        "timestamp": "2025-12-16T21:38:56.811815+00:00",
        "meta_object_name": "INSAT-3DR",
        "meta_object_id": "2016-054A",
        "meta_epoch": "2025-12-16T03:41:38.728608",
        "meta_mean_motion": 1.00271524,
        "meta_eccentricity": 0.00141919,
        "meta_inclination": 0.1005,
        "meta_ra_of_asc_node": 86.7197,
        "meta_arg_of_pericenter": 184.5151,
        "meta_mean_anomaly": 303.2163,
        "meta_ephemeris_type": 0,
        "meta_classification_type": "U",
        "meta_norad_cat_id": 41752,
        "meta_element_set_no": 999,
        "meta_rev_at_epoch": 3398,
        "meta_bstar": 0,
        "meta_mean_motion_dot": -5.4e-07,
        "meta_mean_motion_ddot": 0,
        "tle_line1": "1 41752U 16054A   25350.15392047 -.00000054  00000+0  00000+0 0  9999",
        "tle_line2": "2 41752   0.1005  86.7197 0014191 184.5151 303.2163  1.00271524 33989"
      },
      "geometry": {
        "type": "Point",
        "coordinates": [
          124.41172474861845,
          0.07594500957408234
        ]
      }
    },
    {
      "type": "Feature",
      "properties": {
        "norad_id": 41836,
        "name": "HIMAWARI-9",
        "group": "weather",
        "lat": -0.024996638597265305,
        "lon": -168.73135530740979,
        "alt_km": 35786.99279702637,
        "timestamp": "2025-12-16T21:38:56.811827+00:00",
        "meta_object_name": "HIMAWARI-9",
        "meta_object_id": "2016-064A",
        "meta_epoch": "2025-12-16T01:06:14.705856",
        "meta_mean_motion": 1.00272556,
        "meta_eccentricity": 8.802e-05,
        "meta_inclination": 0.019,
        "meta_ra_of_asc_node": 273.5388,
        "meta_arg_of_pericenter": 24.1192,
        "meta_mean_anomaly": 304.6111,
        "meta_ephemeris_type": 0,
        "meta_classification_type": "U",
        "meta_norad_cat_id": 41836,
        "meta_element_set_no": 999,
        "meta_rev_at_epoch": 3337,
        "meta_bstar": 0,
        "meta_mean_motion_dot": -2.52e-06,
        "meta_mean_motion_ddot": 0,
        "tle_line1": "1 41836U 16064A   25350.04600354 -.00000252  00000+0  00000+0 0  9994",
        "tle_line2": "2 41836   0.0190 273.5388 0000880  24.1192 304.6111  1.00272556 33375"
      },
      "geometry": {
        "type": "Point",
        "coordinates": [
          -168.73135530740979,
          -0.024996638597265305
        ]
      }
    }
  ]
}